[{"OBJECT_NAME":"STARLINK-2526","OBJECT_ID":"2021-038AB","EPOCH":"2026-03-09T22:41:23.494848","MEAN_MOTION":15.30187905,"ECCENTRICITY":0.00013052,"INCLINATION":53.1612,"RA_OF_ASC_NODE":346.6542,"ARG_OF_PERICENTER":99.1282,"MEAN_ANOMALY":260.9866,"EPHEMERIS_TYPE":0,"CLASSIFICATION_TYPE":"U","NORAD_CAT_ID":48378,"ELEMENT_SET_NO":999,"REV_AT_EPOCH":26726,"BSTAR":-4.3294809e-5,"MEAN_MOTION_DOT":-1.641e-5,"MEAN_MOTION_DDOT":0},{"OBJECT_NAME":"TRANSPORTER-12 OBJECT AZ","OBJECT_ID":"2025-009AZ","EPOCH":"2026-03-09T17:02:46.667040","MEAN_MOTION":15.30349724,"ECCENTRICITY":9.87e-5,"INCLINATION":97.3981,"RA_OF_ASC_NODE":151.9913,"ARG_OF_PERICENTER":45.3581,"MEAN_ANOMALY":314.774,"EPHEMERIS_TYPE":0,"CLASSIFICATION_TYPE":"U","NORAD_CAT_ID":62656,"ELEMENT_SET_NO":999,"REV_AT_EPOCH":6379,"BSTAR":0.00054902545,"MEAN_MOTION_DOT":0.00016057,"MEAN_MOTION_DDOT":0}]
